<?xml version="1.0" encoding="UTF-8" standalone="no" ?>
<gpx xmlns="http://www.topografix.com/GPX/1/1" xmlns:gpxx="http://www.garmin.com/xmlschemas/GpxExtensions/v3" xmlns:gpxtpx="http://www.garmin.com/xmlschemas/TrackPointExtension/v1" creator="mapstogpx.com" version="1.1" xmlns:xsi="http://www.w3.org/2001/XMLSchema-instance" xsi:schemaLocation="http://www.topografix.com/GPX/1/1 http://www.topografix.com/GPX/1/1/gpx.xsd http://www.garmin.com/xmlschemas/GpxExtensions/v3 http://www.garmin.com/xmlschemas/GpxExtensionsv3.xsd http://www.garmin.com/xmlschemas/TrackPointExtension/v1 http://www.garmin.com/xmlschemas/TrackPointExtensionv1.xsd">
  <metadata>
    <link href="http://www.mapstogpx.com">
      <text>Sverrir Sigmundarson</text>
    </link>
    <!--desc>Powered by Google, ©2026 Google</desc-->
    <!--copyright author="Google Inc">
    	<year>2026</year>
    	<license>https://developers.google.com/maps/terms</license>
    </copyright-->
    <!--url>https://www.google.co.uk/maps/dir/Autogara Super Imposer, Splaiul Tudor Vladimirescu 30, 300425 Timișoara, Romania/Crucea Ortodoxă Sârbă, Strada Cetăţii 4, Ciacova, Romania/@45.6285119,20.996854,35667m/data=!3m1!1e3!4m14!4m13!1m5!1m1!1s0x47455d68b6b68e9b:0x62ac8177f06f3fe9!2m2!1d21.2071055!2d45.7460366!1m5!1m1!1s0x474555004f376163:0xe0ad96a398a1f264!2m2!1d21.1234173!2d45.5138868!3e0?entry=ttu&g_ep=EgoyMDI2MDkzMC4wIKXMDSoASAFQAw==&hl=en</url-->
    <time>2026-10-06T15:08:24Z</time>
  </metadata>
  <wpt lat="45.7460366" lon="21.2071055">
    <name>Autogara Super Imposer</name>
    <desc>Autogara Super Imposer, Splaiul Tudor Vladimirescu 30, 300425 Timișoara, Romania</desc>
  </wpt>
  <wpt lat="45.5138868" lon="21.1234173">
    <name>Crucea Ortodoxă Sârbă</name>
    <desc>Crucea Ortodoxă Sârbă, Strada Cetăţii 4, Ciacova, Romania</desc>
  </wpt>
<trk>
  <name>Autogara Super Imposer to Crucea Ortodoxă Sârbă</name>
  <number>1</number>
  <trkseg>
  <trkpt lat="45.7460148" lon="21.2071177">
    <name>TP001</name>
  </trkpt>
  <trkpt lat="45.74598" lon="21.207">
    <name>TP002</name>
  </trkpt>
  <trkpt lat="45.74612" lon="21.2069">
    <name>TP003</name>
  </trkpt>
  <trkpt lat="45.7461196" lon="21.2069014">
    <name>TP004</name>
  </trkpt>
  <trkpt lat="45.74629" lon="21.20741">
    <name>TP005</name>
  </trkpt>
  <trkpt lat="45.74635" lon="21.20759">
    <name>TP006</name>
  </trkpt>
  <trkpt lat="45.7463499" lon="21.2075935">
    <name>TP007</name>
  </trkpt>
  <trkpt lat="45.74597" lon="21.20785">
    <name>TP008</name>
  </trkpt>
  <trkpt lat="45.74595" lon="21.20787">
    <name>TP009</name>
  </trkpt>
  <trkpt lat="45.74594" lon="21.20788">
    <name>TP010</name>
  </trkpt>
  <trkpt lat="45.74585" lon="21.20784">
    <name>TP011</name>
  </trkpt>
  <trkpt lat="45.74583" lon="21.20784">
    <name>TP012</name>
  </trkpt>
  <trkpt lat="45.74581" lon="21.20785">
    <name>TP013</name>
  </trkpt>
  <trkpt lat="45.7458" lon="21.20785">
    <name>TP014</name>
  </trkpt>
  <trkpt lat="45.74527" lon="21.20823">
    <name>TP015</name>
  </trkpt>
  <trkpt lat="45.74505" lon="21.20838">
    <name>TP016</name>
  </trkpt>
  <trkpt lat="45.74438" lon="21.20886">
    <name>TP017</name>
  </trkpt>
  <trkpt lat="45.74437" lon="21.20886">
    <name>TP018</name>
  </trkpt>
  <trkpt lat="45.74433" lon="21.20889">
    <name>TP019</name>
  </trkpt>
  <trkpt lat="45.7443345" lon="21.2088918">
    <name>TP020</name>
  </trkpt>
  <trkpt lat="45.74433" lon="21.20888">
    <name>TP021</name>
  </trkpt>
  <trkpt lat="45.74432" lon="21.20888">
    <name>TP022</name>
  </trkpt>
  <trkpt lat="45.74431" lon="21.20887">
    <name>TP023</name>
  </trkpt>
  <trkpt lat="45.7443" lon="21.20887">
    <name>TP024</name>
  </trkpt>
  <trkpt lat="45.74429" lon="21.20887">
    <name>TP025</name>
  </trkpt>
  <trkpt lat="45.74429" lon="21.20886">
    <name>TP026</name>
  </trkpt>
  <trkpt lat="45.74428" lon="21.20886">
    <name>TP027</name>
  </trkpt>
  <trkpt lat="45.74427" lon="21.20886">
    <name>TP028</name>
  </trkpt>
  <trkpt lat="45.74426" lon="21.20886">
    <name>TP029</name>
  </trkpt>
  <trkpt lat="45.74425" lon="21.20886">
    <name>TP030</name>
  </trkpt>
  <trkpt lat="45.74424" lon="21.20887">
    <name>TP031</name>
  </trkpt>
  <trkpt lat="45.74423" lon="21.20887">
    <name>TP032</name>
  </trkpt>
  <trkpt lat="45.74422" lon="21.20888">
    <name>TP033</name>
  </trkpt>
  <trkpt lat="45.74421" lon="21.20888">
    <name>TP034</name>
  </trkpt>
  <trkpt lat="45.7442" lon="21.20889">
    <name>TP035</name>
  </trkpt>
  <trkpt lat="45.74419" lon="21.2089">
    <name>TP036</name>
  </trkpt>
  <trkpt lat="45.74419" lon="21.20891">
    <name>TP037</name>
  </trkpt>
  <trkpt lat="45.74418" lon="21.20891">
    <name>TP038</name>
  </trkpt>
  <trkpt lat="45.74418" lon="21.20892">
    <name>TP039</name>
  </trkpt>
  <trkpt lat="45.74417" lon="21.20893">
    <name>TP040</name>
  </trkpt>
  <trkpt lat="45.74417" lon="21.20894">
    <name>TP041</name>
  </trkpt>
  <trkpt lat="45.74417" lon="21.20895">
    <name>TP042</name>
  </trkpt>
  <trkpt lat="45.74416" lon="21.20895">
    <name>TP043</name>
  </trkpt>
  <trkpt lat="45.74416" lon="21.20896">
    <name>TP044</name>
  </trkpt>
  <trkpt lat="45.74416" lon="21.20898">
    <name>TP045</name>
  </trkpt>
  <trkpt lat="45.74407" lon="21.20857">
    <name>TP046</name>
  </trkpt>
  <trkpt lat="45.74406" lon="21.20854">
    <name>TP047</name>
  </trkpt>
  <trkpt lat="45.74405" lon="21.20849">
    <name>TP048</name>
  </trkpt>
  <trkpt lat="45.74352" lon="21.20688">
    <name>TP049</name>
  </trkpt>
  <trkpt lat="45.7435209" lon="21.2068762">
    <name>TP050</name>
  </trkpt>
  <trkpt lat="45.74346" lon="21.20666">
    <name>TP051</name>
  </trkpt>
  <trkpt lat="45.7434" lon="21.20669">
    <name>TP052</name>
  </trkpt>
  <trkpt lat="45.7433" lon="21.20674">
    <name>TP053</name>
  </trkpt>
  <trkpt lat="45.74323" lon="21.20679">
    <name>TP054</name>
  </trkpt>
  <trkpt lat="45.7432" lon="21.20681">
    <name>TP055</name>
  </trkpt>
  <trkpt lat="45.74282" lon="21.20706">
    <name>TP056</name>
  </trkpt>
  <trkpt lat="45.74237" lon="21.20739">
    <name>TP057</name>
  </trkpt>
  <trkpt lat="45.74233" lon="21.20742">
    <name>TP058</name>
  </trkpt>
  <trkpt lat="45.74224" lon="21.2075">
    <name>TP059</name>
  </trkpt>
  <trkpt lat="45.74221" lon="21.20752">
    <name>TP060</name>
  </trkpt>
  <trkpt lat="45.74206" lon="21.20763">
    <name>TP061</name>
  </trkpt>
  <trkpt lat="45.73991" lon="21.20919">
    <name>TP062</name>
  </trkpt>
  <trkpt lat="45.73927" lon="21.20965">
    <name>TP063</name>
  </trkpt>
  <trkpt lat="45.739273" lon="21.2096505">
    <name>TP064</name>
  </trkpt>
  <trkpt lat="45.73925" lon="21.20962">
    <name>TP065</name>
  </trkpt>
  <trkpt lat="45.73923" lon="21.2096">
    <name>TP066</name>
  </trkpt>
  <trkpt lat="45.7392" lon="21.20958">
    <name>TP067</name>
  </trkpt>
  <trkpt lat="45.73918" lon="21.20957">
    <name>TP068</name>
  </trkpt>
  <trkpt lat="45.73915" lon="21.20956">
    <name>TP069</name>
  </trkpt>
  <trkpt lat="45.73912" lon="21.20955">
    <name>TP070</name>
  </trkpt>
  <trkpt lat="45.73909" lon="21.20955">
    <name>TP071</name>
  </trkpt>
  <trkpt lat="45.73906" lon="21.20955">
    <name>TP072</name>
  </trkpt>
  <trkpt lat="45.73903" lon="21.20956">
    <name>TP073</name>
  </trkpt>
  <trkpt lat="45.739" lon="21.20957">
    <name>TP074</name>
  </trkpt>
  <trkpt lat="45.73897" lon="21.20959">
    <name>TP075</name>
  </trkpt>
  <trkpt lat="45.73894" lon="21.20961">
    <name>TP076</name>
  </trkpt>
  <trkpt lat="45.73891" lon="21.20964">
    <name>TP077</name>
  </trkpt>
  <trkpt lat="45.73889" lon="21.20967">
    <name>TP078</name>
  </trkpt>
  <trkpt lat="45.73887" lon="21.2097">
    <name>TP079</name>
  </trkpt>
  <trkpt lat="45.73885" lon="21.20974">
    <name>TP080</name>
  </trkpt>
  <trkpt lat="45.73876" lon="21.20977">
    <name>TP081</name>
  </trkpt>
  <trkpt lat="45.7387" lon="21.20978">
    <name>TP082</name>
  </trkpt>
  <trkpt lat="45.73865" lon="21.20978">
    <name>TP083</name>
  </trkpt>
  <trkpt lat="45.73857" lon="21.20978">
    <name>TP084</name>
  </trkpt>
  <trkpt lat="45.73844" lon="21.20977">
    <name>TP085</name>
  </trkpt>
  <trkpt lat="45.73795" lon="21.20968">
    <name>TP086</name>
  </trkpt>
  <trkpt lat="45.73612" lon="21.20934">
    <name>TP087</name>
  </trkpt>
  <trkpt lat="45.7361" lon="21.20934">
    <name>TP088</name>
  </trkpt>
  <trkpt lat="45.73379" lon="21.2089">
    <name>TP089</name>
  </trkpt>
  <trkpt lat="45.73355" lon="21.20886">
    <name>TP090</name>
  </trkpt>
  <trkpt lat="45.73329" lon="21.20882">
    <name>TP091</name>
  </trkpt>
  <trkpt lat="45.73324" lon="21.20881">
    <name>TP092</name>
  </trkpt>
  <trkpt lat="45.73312" lon="21.20878">
    <name>TP093</name>
  </trkpt>
  <trkpt lat="45.73297" lon="21.20873">
    <name>TP094</name>
  </trkpt>
  <trkpt lat="45.73268" lon="21.20863">
    <name>TP095</name>
  </trkpt>
  <trkpt lat="45.73262" lon="21.2086">
    <name>TP096</name>
  </trkpt>
  <trkpt lat="45.73259" lon="21.20859">
    <name>TP097</name>
  </trkpt>
  <trkpt lat="45.73253" lon="21.20857">
    <name>TP098</name>
  </trkpt>
  <trkpt lat="45.73229" lon="21.20849">
    <name>TP099</name>
  </trkpt>
  <trkpt lat="45.73227" lon="21.20848">
    <name>TP100</name>
  </trkpt>
  <trkpt lat="45.73219" lon="21.20846">
    <name>TP101</name>
  </trkpt>
  <trkpt lat="45.73208" lon="21.20841">
    <name>TP102</name>
  </trkpt>
  <trkpt lat="45.73199" lon="21.20836">
    <name>TP103</name>
  </trkpt>
  <trkpt lat="45.73187" lon="21.20829">
    <name>TP104</name>
  </trkpt>
  <trkpt lat="45.73176" lon="21.20822">
    <name>TP105</name>
  </trkpt>
  <trkpt lat="45.7316" lon="21.20809">
    <name>TP106</name>
  </trkpt>
  <trkpt lat="45.73117" lon="21.20773">
    <name>TP107</name>
  </trkpt>
  <trkpt lat="45.73105" lon="21.20763">
    <name>TP108</name>
  </trkpt>
  <trkpt lat="45.73006" lon="21.20685">
    <name>TP109</name>
  </trkpt>
  <trkpt lat="45.72995" lon="21.20676">
    <name>TP110</name>
  </trkpt>
  <trkpt lat="45.72982" lon="21.20663">
    <name>TP111</name>
  </trkpt>
  <trkpt lat="45.72967" lon="21.20647">
    <name>TP112</name>
  </trkpt>
  <trkpt lat="45.72949" lon="21.20627">
    <name>TP113</name>
  </trkpt>
  <trkpt lat="45.72947" lon="21.20625">
    <name>TP114</name>
  </trkpt>
  <trkpt lat="45.72933" lon="21.20607">
    <name>TP115</name>
  </trkpt>
  <trkpt lat="45.7291" lon="21.20581">
    <name>TP116</name>
  </trkpt>
  <trkpt lat="45.72906" lon="21.20576">
    <name>TP117</name>
  </trkpt>
  <trkpt lat="45.72903" lon="21.20573">
    <name>TP118</name>
  </trkpt>
  <trkpt lat="45.72901" lon="21.2057">
    <name>TP119</name>
  </trkpt>
  <trkpt lat="45.72896" lon="21.20565">
    <name>TP120</name>
  </trkpt>
  <trkpt lat="45.72889" lon="21.20558">
    <name>TP121</name>
  </trkpt>
  <trkpt lat="45.72884" lon="21.20553">
    <name>TP122</name>
  </trkpt>
  <trkpt lat="45.72866" lon="21.20536">
    <name>TP123</name>
  </trkpt>
  <trkpt lat="45.72861" lon="21.20531">
    <name>TP124</name>
  </trkpt>
  <trkpt lat="45.7285" lon="21.20522">
    <name>TP125</name>
  </trkpt>
  <trkpt lat="45.72844" lon="21.20517">
    <name>TP126</name>
  </trkpt>
  <trkpt lat="45.72839" lon="21.20513">
    <name>TP127</name>
  </trkpt>
  <trkpt lat="45.72835" lon="21.2051">
    <name>TP128</name>
  </trkpt>
  <trkpt lat="45.72831" lon="21.20507">
    <name>TP129</name>
  </trkpt>
  <trkpt lat="45.72819" lon="21.20496">
    <name>TP130</name>
  </trkpt>
  <trkpt lat="45.7281894" lon="21.2049647">
    <name>TP131</name>
  </trkpt>
  <trkpt lat="45.728" lon="21.20481">
    <name>TP132</name>
  </trkpt>
  <trkpt lat="45.72786" lon="21.2047">
    <name>TP133</name>
  </trkpt>
  <trkpt lat="45.72767" lon="21.20455">
    <name>TP134</name>
  </trkpt>
  <trkpt lat="45.7275" lon="21.20441">
    <name>TP135</name>
  </trkpt>
  <trkpt lat="45.72697" lon="21.20397">
    <name>TP136</name>
  </trkpt>
  <trkpt lat="45.72637" lon="21.20346">
    <name>TP137</name>
  </trkpt>
  <trkpt lat="45.72612" lon="21.20323">
    <name>TP138</name>
  </trkpt>
  <trkpt lat="45.72592" lon="21.20294">
    <name>TP139</name>
  </trkpt>
  <trkpt lat="45.72592" lon="21.20293">
    <name>TP140</name>
  </trkpt>
  <trkpt lat="45.72592" lon="21.20291">
    <name>TP141</name>
  </trkpt>
  <trkpt lat="45.72591" lon="21.2029">
    <name>TP142</name>
  </trkpt>
  <trkpt lat="45.7259" lon="21.20289">
    <name>TP143</name>
  </trkpt>
  <trkpt lat="45.7259" lon="21.20288">
    <name>TP144</name>
  </trkpt>
  <trkpt lat="45.72589" lon="21.20287">
    <name>TP145</name>
  </trkpt>
  <trkpt lat="45.72588" lon="21.20286">
    <name>TP146</name>
  </trkpt>
  <trkpt lat="45.72588" lon="21.20285">
    <name>TP147</name>
  </trkpt>
  <trkpt lat="45.72587" lon="21.20284">
    <name>TP148</name>
  </trkpt>
  <trkpt lat="45.72586" lon="21.20284">
    <name>TP149</name>
  </trkpt>
  <trkpt lat="45.72584" lon="21.20282">
    <name>TP150</name>
  </trkpt>
  <trkpt lat="45.72583" lon="21.20282">
    <name>TP151</name>
  </trkpt>
  <trkpt lat="45.72582" lon="21.20282">
    <name>TP152</name>
  </trkpt>
  <trkpt lat="45.72581" lon="21.20281">
    <name>TP153</name>
  </trkpt>
  <trkpt lat="45.7258" lon="21.20281">
    <name>TP154</name>
  </trkpt>
  <trkpt lat="45.72579" lon="21.20281">
    <name>TP155</name>
  </trkpt>
  <trkpt lat="45.72578" lon="21.20281">
    <name>TP156</name>
  </trkpt>
  <trkpt lat="45.72577" lon="21.20281">
    <name>TP157</name>
  </trkpt>
  <trkpt lat="45.72576" lon="21.20281">
    <name>TP158</name>
  </trkpt>
  <trkpt lat="45.72574" lon="21.20282">
    <name>TP159</name>
  </trkpt>
  <trkpt lat="45.72566" lon="21.20272">
    <name>TP160</name>
  </trkpt>
  <trkpt lat="45.72564" lon="21.20271">
    <name>TP161</name>
  </trkpt>
  <trkpt lat="45.72557" lon="21.20268">
    <name>TP162</name>
  </trkpt>
  <trkpt lat="45.72547" lon="21.20262">
    <name>TP163</name>
  </trkpt>
  <trkpt lat="45.72535" lon="21.20257">
    <name>TP164</name>
  </trkpt>
  <trkpt lat="45.72517" lon="21.20247">
    <name>TP165</name>
  </trkpt>
  <trkpt lat="45.72505" lon="21.20237">
    <name>TP166</name>
  </trkpt>
  <trkpt lat="45.72489" lon="21.20225">
    <name>TP167</name>
  </trkpt>
  <trkpt lat="45.72445" lon="21.20188">
    <name>TP168</name>
  </trkpt>
  <trkpt lat="45.72427" lon="21.20173">
    <name>TP169</name>
  </trkpt>
  <trkpt lat="45.72413" lon="21.20162">
    <name>TP170</name>
  </trkpt>
  <trkpt lat="45.7236" lon="21.20118">
    <name>TP171</name>
  </trkpt>
  <trkpt lat="45.72345" lon="21.20104">
    <name>TP172</name>
  </trkpt>
  <trkpt lat="45.72329" lon="21.20092">
    <name>TP173</name>
  </trkpt>
  <trkpt lat="45.72323" lon="21.20087">
    <name>TP174</name>
  </trkpt>
  <trkpt lat="45.72296" lon="21.20064">
    <name>TP175</name>
  </trkpt>
  <trkpt lat="45.72243" lon="21.2002">
    <name>TP176</name>
  </trkpt>
  <trkpt lat="45.72174" lon="21.19962">
    <name>TP177</name>
  </trkpt>
  <trkpt lat="45.72148" lon="21.19941">
    <name>TP178</name>
  </trkpt>
  <trkpt lat="45.72122" lon="21.19919">
    <name>TP179</name>
  </trkpt>
  <trkpt lat="45.72036" lon="21.19848">
    <name>TP180</name>
  </trkpt>
  <trkpt lat="45.72026" lon="21.19841">
    <name>TP181</name>
  </trkpt>
  <trkpt lat="45.72017" lon="21.19833">
    <name>TP182</name>
  </trkpt>
  <trkpt lat="45.71944" lon="21.19772">
    <name>TP183</name>
  </trkpt>
  <trkpt lat="45.71928" lon="21.19759">
    <name>TP184</name>
  </trkpt>
  <trkpt lat="45.7185" lon="21.19695">
    <name>TP185</name>
  </trkpt>
  <trkpt lat="45.71836" lon="21.19682">
    <name>TP186</name>
  </trkpt>
  <trkpt lat="45.71835" lon="21.19681">
    <name>TP187</name>
  </trkpt>
  <trkpt lat="45.71822" lon="21.1967">
    <name>TP188</name>
  </trkpt>
  <trkpt lat="45.71763" lon="21.19622">
    <name>TP189</name>
  </trkpt>
  <trkpt lat="45.71755" lon="21.19616">
    <name>TP190</name>
  </trkpt>
  <trkpt lat="45.71731" lon="21.19596">
    <name>TP191</name>
  </trkpt>
  <trkpt lat="45.7169" lon="21.19563">
    <name>TP192</name>
  </trkpt>
  <trkpt lat="45.71594" lon="21.19482">
    <name>TP193</name>
  </trkpt>
  <trkpt lat="45.71512" lon="21.19413">
    <name>TP194</name>
  </trkpt>
  <trkpt lat="45.71428" lon="21.19343">
    <name>TP195</name>
  </trkpt>
  <trkpt lat="45.71369" lon="21.19294">
    <name>TP196</name>
  </trkpt>
  <trkpt lat="45.71309" lon="21.19243">
    <name>TP197</name>
  </trkpt>
  <trkpt lat="45.71287" lon="21.19226">
    <name>TP198</name>
  </trkpt>
  <trkpt lat="45.71241" lon="21.19189">
    <name>TP199</name>
  </trkpt>
  <trkpt lat="45.71203" lon="21.19159">
    <name>TP200</name>
  </trkpt>
  <trkpt lat="45.71155" lon="21.19121">
    <name>TP201</name>
  </trkpt>
  <trkpt lat="45.71029" lon="21.19017">
    <name>TP202</name>
  </trkpt>
  <trkpt lat="45.71028" lon="21.19016">
    <name>TP203</name>
  </trkpt>
  <trkpt lat="45.71026" lon="21.19015">
    <name>TP204</name>
  </trkpt>
  <trkpt lat="45.7102" lon="21.19014">
    <name>TP205</name>
  </trkpt>
  <trkpt lat="45.708" lon="21.18833">
    <name>TP206</name>
  </trkpt>
  <trkpt lat="45.70712" lon="21.1876">
    <name>TP207</name>
  </trkpt>
  <trkpt lat="45.70708" lon="21.18757">
    <name>TP208</name>
  </trkpt>
  <trkpt lat="45.70684" lon="21.18737">
    <name>TP209</name>
  </trkpt>
  <trkpt lat="45.70679" lon="21.18733">
    <name>TP210</name>
  </trkpt>
  <trkpt lat="45.70679" lon="21.18732">
    <name>TP211</name>
  </trkpt>
  <trkpt lat="45.70679" lon="21.18731">
    <name>TP212</name>
  </trkpt>
  <trkpt lat="45.70678" lon="21.18731">
    <name>TP213</name>
  </trkpt>
  <trkpt lat="45.70664" lon="21.18712">
    <name>TP214</name>
  </trkpt>
  <trkpt lat="45.70636" lon="21.1869">
    <name>TP215</name>
  </trkpt>
  <trkpt lat="45.70629" lon="21.18683">
    <name>TP216</name>
  </trkpt>
  <trkpt lat="45.70627" lon="21.1868">
    <name>TP217</name>
  </trkpt>
  <trkpt lat="45.70624" lon="21.18677">
    <name>TP218</name>
  </trkpt>
  <trkpt lat="45.70622" lon="21.18672">
    <name>TP219</name>
  </trkpt>
  <trkpt lat="45.70619" lon="21.18666">
    <name>TP220</name>
  </trkpt>
  <trkpt lat="45.70617" lon="21.18656">
    <name>TP221</name>
  </trkpt>
  <trkpt lat="45.70614" lon="21.18638">
    <name>TP222</name>
  </trkpt>
  <trkpt lat="45.7061366" lon="21.18638">
    <name>TP223</name>
  </trkpt>
  <trkpt lat="45.70613" lon="21.18636">
    <name>TP224</name>
  </trkpt>
  <trkpt lat="45.70613" lon="21.18634">
    <name>TP225</name>
  </trkpt>
  <trkpt lat="45.70612" lon="21.18631">
    <name>TP226</name>
  </trkpt>
  <trkpt lat="45.70612" lon="21.18629">
    <name>TP227</name>
  </trkpt>
  <trkpt lat="45.70611" lon="21.18627">
    <name>TP228</name>
  </trkpt>
  <trkpt lat="45.70611" lon="21.18625">
    <name>TP229</name>
  </trkpt>
  <trkpt lat="45.7061" lon="21.18623">
    <name>TP230</name>
  </trkpt>
  <trkpt lat="45.70609" lon="21.18621">
    <name>TP231</name>
  </trkpt>
  <trkpt lat="45.70607" lon="21.18615">
    <name>TP232</name>
  </trkpt>
  <trkpt lat="45.70604" lon="21.1861">
    <name>TP233</name>
  </trkpt>
  <trkpt lat="45.706" lon="21.18605">
    <name>TP234</name>
  </trkpt>
  <trkpt lat="45.70596" lon="21.18601">
    <name>TP235</name>
  </trkpt>
  <trkpt lat="45.70592" lon="21.18598">
    <name>TP236</name>
  </trkpt>
  <trkpt lat="45.70587" lon="21.18595">
    <name>TP237</name>
  </trkpt>
  <trkpt lat="45.70582" lon="21.18594">
    <name>TP238</name>
  </trkpt>
  <trkpt lat="45.70577" lon="21.18593">
    <name>TP239</name>
  </trkpt>
  <trkpt lat="45.70575" lon="21.18593">
    <name>TP240</name>
  </trkpt>
  <trkpt lat="45.70572" lon="21.18593">
    <name>TP241</name>
  </trkpt>
  <trkpt lat="45.7057" lon="21.18594">
    <name>TP242</name>
  </trkpt>
  <trkpt lat="45.70567" lon="21.18594">
    <name>TP243</name>
  </trkpt>
  <trkpt lat="45.70564" lon="21.18595">
    <name>TP244</name>
  </trkpt>
  <trkpt lat="45.70562" lon="21.18597">
    <name>TP245</name>
  </trkpt>
  <trkpt lat="45.70559" lon="21.18598">
    <name>TP246</name>
  </trkpt>
  <trkpt lat="45.70557" lon="21.186">
    <name>TP247</name>
  </trkpt>
  <trkpt lat="45.7055" lon="21.186">
    <name>TP248</name>
  </trkpt>
  <trkpt lat="45.70545" lon="21.18601">
    <name>TP249</name>
  </trkpt>
  <trkpt lat="45.7054" lon="21.18601">
    <name>TP250</name>
  </trkpt>
  <trkpt lat="45.70534" lon="21.18599">
    <name>TP251</name>
  </trkpt>
  <trkpt lat="45.70527" lon="21.18596">
    <name>TP252</name>
  </trkpt>
  <trkpt lat="45.70521" lon="21.18592">
    <name>TP253</name>
  </trkpt>
  <trkpt lat="45.70492" lon="21.18572">
    <name>TP254</name>
  </trkpt>
  <trkpt lat="45.70489" lon="21.1857">
    <name>TP255</name>
  </trkpt>
  <trkpt lat="45.70485" lon="21.18568">
    <name>TP256</name>
  </trkpt>
  <trkpt lat="45.70483" lon="21.18567">
    <name>TP257</name>
  </trkpt>
  <trkpt lat="45.70481" lon="21.18567">
    <name>TP258</name>
  </trkpt>
  <trkpt lat="45.70478" lon="21.18566">
    <name>TP259</name>
  </trkpt>
  <trkpt lat="45.70472" lon="21.18561">
    <name>TP260</name>
  </trkpt>
  <trkpt lat="45.70457" lon="21.18549">
    <name>TP261</name>
  </trkpt>
  <trkpt lat="45.70443" lon="21.18538">
    <name>TP262</name>
  </trkpt>
  <trkpt lat="45.70438" lon="21.18534">
    <name>TP263</name>
  </trkpt>
  <trkpt lat="45.70399" lon="21.18502">
    <name>TP264</name>
  </trkpt>
  <trkpt lat="45.70351" lon="21.18462">
    <name>TP265</name>
  </trkpt>
  <trkpt lat="45.70268" lon="21.18393">
    <name>TP266</name>
  </trkpt>
  <trkpt lat="45.70195" lon="21.18332">
    <name>TP267</name>
  </trkpt>
  <trkpt lat="45.70148" lon="21.18293">
    <name>TP268</name>
  </trkpt>
  <trkpt lat="45.70134" lon="21.18273">
    <name>TP269</name>
  </trkpt>
  <trkpt lat="45.70128" lon="21.18268">
    <name>TP270</name>
  </trkpt>
  <trkpt lat="45.70117" lon="21.18259">
    <name>TP271</name>
  </trkpt>
  <trkpt lat="45.70116" lon="21.18259">
    <name>TP272</name>
  </trkpt>
  <trkpt lat="45.7011" lon="21.18254">
    <name>TP273</name>
  </trkpt>
  <trkpt lat="45.701" lon="21.18246">
    <name>TP274</name>
  </trkpt>
  <trkpt lat="45.70065" lon="21.18219">
    <name>TP275</name>
  </trkpt>
  <trkpt lat="45.69998" lon="21.18165">
    <name>TP276</name>
  </trkpt>
  <trkpt lat="45.69938" lon="21.18116">
    <name>TP277</name>
  </trkpt>
  <trkpt lat="45.69917" lon="21.18097">
    <name>TP278</name>
  </trkpt>
  <trkpt lat="45.6986" lon="21.18046">
    <name>TP279</name>
  </trkpt>
  <trkpt lat="45.69852" lon="21.18042">
    <name>TP280</name>
  </trkpt>
  <trkpt lat="45.69842" lon="21.18041">
    <name>TP281</name>
  </trkpt>
  <trkpt lat="45.69811" lon="21.18015">
    <name>TP282</name>
  </trkpt>
  <trkpt lat="45.69774" lon="21.17984">
    <name>TP283</name>
  </trkpt>
  <trkpt lat="45.69718" lon="21.17937">
    <name>TP284</name>
  </trkpt>
  <trkpt lat="45.69688" lon="21.17913">
    <name>TP285</name>
  </trkpt>
  <trkpt lat="45.69634" lon="21.17869">
    <name>TP286</name>
  </trkpt>
  <trkpt lat="45.69541" lon="21.17792">
    <name>TP287</name>
  </trkpt>
  <trkpt lat="45.69401" lon="21.17676">
    <name>TP288</name>
  </trkpt>
  <trkpt lat="45.69395" lon="21.17668">
    <name>TP289</name>
  </trkpt>
  <trkpt lat="45.69393" lon="21.17665">
    <name>TP290</name>
  </trkpt>
  <trkpt lat="45.69355" lon="21.17633">
    <name>TP291</name>
  </trkpt>
  <trkpt lat="45.69314" lon="21.17598">
    <name>TP292</name>
  </trkpt>
  <trkpt lat="45.69281" lon="21.17571">
    <name>TP293</name>
  </trkpt>
  <trkpt lat="45.69209" lon="21.17511">
    <name>TP294</name>
  </trkpt>
  <trkpt lat="45.69207" lon="21.1751">
    <name>TP295</name>
  </trkpt>
  <trkpt lat="45.69204" lon="21.17508">
    <name>TP296</name>
  </trkpt>
  <trkpt lat="45.69195" lon="21.17505">
    <name>TP297</name>
  </trkpt>
  <trkpt lat="45.69088" lon="21.17417">
    <name>TP298</name>
  </trkpt>
  <trkpt lat="45.69012" lon="21.17354">
    <name>TP299</name>
  </trkpt>
  <trkpt lat="45.68959" lon="21.1731">
    <name>TP300</name>
  </trkpt>
  <trkpt lat="45.68945" lon="21.17299">
    <name>TP301</name>
  </trkpt>
  <trkpt lat="45.68929" lon="21.17286">
    <name>TP302</name>
  </trkpt>
  <trkpt lat="45.68901" lon="21.17263">
    <name>TP303</name>
  </trkpt>
  <trkpt lat="45.68887" lon="21.17251">
    <name>TP304</name>
  </trkpt>
  <trkpt lat="45.68877" lon="21.17243">
    <name>TP305</name>
  </trkpt>
  <trkpt lat="45.6882" lon="21.17196">
    <name>TP306</name>
  </trkpt>
  <trkpt lat="45.68818" lon="21.17194">
    <name>TP307</name>
  </trkpt>
  <trkpt lat="45.68796" lon="21.17176">
    <name>TP308</name>
  </trkpt>
  <trkpt lat="45.68763" lon="21.17148">
    <name>TP309</name>
  </trkpt>
  <trkpt lat="45.68724" lon="21.17115">
    <name>TP310</name>
  </trkpt>
  <trkpt lat="45.68714" lon="21.17107">
    <name>TP311</name>
  </trkpt>
  <trkpt lat="45.68544" lon="21.16964">
    <name>TP312</name>
  </trkpt>
  <trkpt lat="45.6854" lon="21.16961">
    <name>TP313</name>
  </trkpt>
  <trkpt lat="45.68535" lon="21.16952">
    <name>TP314</name>
  </trkpt>
  <trkpt lat="45.68534" lon="21.1695">
    <name>TP315</name>
  </trkpt>
  <trkpt lat="45.68532" lon="21.16948">
    <name>TP316</name>
  </trkpt>
  <trkpt lat="45.6851" lon="21.16929">
    <name>TP317</name>
  </trkpt>
  <trkpt lat="45.68471" lon="21.16899">
    <name>TP318</name>
  </trkpt>
  <trkpt lat="45.68454" lon="21.16889">
    <name>TP319</name>
  </trkpt>
  <trkpt lat="45.68436" lon="21.1688">
    <name>TP320</name>
  </trkpt>
  <trkpt lat="45.68379" lon="21.16856">
    <name>TP321</name>
  </trkpt>
  <trkpt lat="45.6837861" lon="21.1685575">
    <name>TP322</name>
  </trkpt>
  <trkpt lat="45.68378" lon="21.16854">
    <name>TP323</name>
  </trkpt>
  <trkpt lat="45.68378" lon="21.16853">
    <name>TP324</name>
  </trkpt>
  <trkpt lat="45.68378" lon="21.16852">
    <name>TP325</name>
  </trkpt>
  <trkpt lat="45.68378" lon="21.16851">
    <name>TP326</name>
  </trkpt>
  <trkpt lat="45.68377" lon="21.16849">
    <name>TP327</name>
  </trkpt>
  <trkpt lat="45.68377" lon="21.16848">
    <name>TP328</name>
  </trkpt>
  <trkpt lat="45.68376" lon="21.16847">
    <name>TP329</name>
  </trkpt>
  <trkpt lat="45.68376" lon="21.16846">
    <name>TP330</name>
  </trkpt>
  <trkpt lat="45.68374" lon="21.16841">
    <name>TP331</name>
  </trkpt>
  <trkpt lat="45.68372" lon="21.16839">
    <name>TP332</name>
  </trkpt>
  <trkpt lat="45.6837" lon="21.16837">
    <name>TP333</name>
  </trkpt>
  <trkpt lat="45.68368" lon="21.16835">
    <name>TP334</name>
  </trkpt>
  <trkpt lat="45.68366" lon="21.16833">
    <name>TP335</name>
  </trkpt>
  <trkpt lat="45.68364" lon="21.16832">
    <name>TP336</name>
  </trkpt>
  <trkpt lat="45.68362" lon="21.16831">
    <name>TP337</name>
  </trkpt>
  <trkpt lat="45.6836" lon="21.1683">
    <name>TP338</name>
  </trkpt>
  <trkpt lat="45.68359" lon="21.1683">
    <name>TP339</name>
  </trkpt>
  <trkpt lat="45.68358" lon="21.1683">
    <name>TP340</name>
  </trkpt>
  <trkpt lat="45.68357" lon="21.1683">
    <name>TP341</name>
  </trkpt>
  <trkpt lat="45.68356" lon="21.1683">
    <name>TP342</name>
  </trkpt>
  <trkpt lat="45.68355" lon="21.1683">
    <name>TP343</name>
  </trkpt>
  <trkpt lat="45.68354" lon="21.1683">
    <name>TP344</name>
  </trkpt>
  <trkpt lat="45.68353" lon="21.1683">
    <name>TP345</name>
  </trkpt>
  <trkpt lat="45.68351" lon="21.16831">
    <name>TP346</name>
  </trkpt>
  <trkpt lat="45.6835" lon="21.16832">
    <name>TP347</name>
  </trkpt>
  <trkpt lat="45.68348" lon="21.16832">
    <name>TP348</name>
  </trkpt>
  <trkpt lat="45.68346" lon="21.16834">
    <name>TP349</name>
  </trkpt>
  <trkpt lat="45.68344" lon="21.16835">
    <name>TP350</name>
  </trkpt>
  <trkpt lat="45.68343" lon="21.16837">
    <name>TP351</name>
  </trkpt>
  <trkpt lat="45.68341" lon="21.16838">
    <name>TP352</name>
  </trkpt>
  <trkpt lat="45.6834" lon="21.1684">
    <name>TP353</name>
  </trkpt>
  <trkpt lat="45.68339" lon="21.16841">
    <name>TP354</name>
  </trkpt>
  <trkpt lat="45.68338" lon="21.16843">
    <name>TP355</name>
  </trkpt>
  <trkpt lat="45.68338" lon="21.16844">
    <name>TP356</name>
  </trkpt>
  <trkpt lat="45.68337" lon="21.16845">
    <name>TP357</name>
  </trkpt>
  <trkpt lat="45.68337" lon="21.16846">
    <name>TP358</name>
  </trkpt>
  <trkpt lat="45.68323" lon="21.16849">
    <name>TP359</name>
  </trkpt>
  <trkpt lat="45.68318" lon="21.1685">
    <name>TP360</name>
  </trkpt>
  <trkpt lat="45.68288" lon="21.16852">
    <name>TP361</name>
  </trkpt>
  <trkpt lat="45.6828" lon="21.16853">
    <name>TP362</name>
  </trkpt>
  <trkpt lat="45.68253" lon="21.16857">
    <name>TP363</name>
  </trkpt>
  <trkpt lat="45.68186" lon="21.16877">
    <name>TP364</name>
  </trkpt>
  <trkpt lat="45.68173" lon="21.1688">
    <name>TP365</name>
  </trkpt>
  <trkpt lat="45.68163" lon="21.16883">
    <name>TP366</name>
  </trkpt>
  <trkpt lat="45.68161" lon="21.16883">
    <name>TP367</name>
  </trkpt>
  <trkpt lat="45.68053" lon="21.16909">
    <name>TP368</name>
  </trkpt>
  <trkpt lat="45.67976" lon="21.16927">
    <name>TP369</name>
  </trkpt>
  <trkpt lat="45.6794" lon="21.16934">
    <name>TP370</name>
  </trkpt>
  <trkpt lat="45.67921" lon="21.16939">
    <name>TP371</name>
  </trkpt>
  <trkpt lat="45.67868" lon="21.16952">
    <name>TP372</name>
  </trkpt>
  <trkpt lat="45.67798" lon="21.1697">
    <name>TP373</name>
  </trkpt>
  <trkpt lat="45.67695" lon="21.16994">
    <name>TP374</name>
  </trkpt>
  <trkpt lat="45.67618" lon="21.17013">
    <name>TP375</name>
  </trkpt>
  <trkpt lat="45.67554" lon="21.17027">
    <name>TP376</name>
  </trkpt>
  <trkpt lat="45.67463" lon="21.17049">
    <name>TP377</name>
  </trkpt>
  <trkpt lat="45.67374" lon="21.17069">
    <name>TP378</name>
  </trkpt>
  <trkpt lat="45.67353" lon="21.17074">
    <name>TP379</name>
  </trkpt>
  <trkpt lat="45.67332" lon="21.17079">
    <name>TP380</name>
  </trkpt>
  <trkpt lat="45.67278" lon="21.17083">
    <name>TP381</name>
  </trkpt>
  <trkpt lat="45.672782" lon="21.1708284">
    <name>TP382</name>
  </trkpt>
  <trkpt lat="45.67277" lon="21.17081">
    <name>TP383</name>
  </trkpt>
  <trkpt lat="45.67276" lon="21.17078">
    <name>TP384</name>
  </trkpt>
  <trkpt lat="45.67274" lon="21.17075">
    <name>TP385</name>
  </trkpt>
  <trkpt lat="45.67272" lon="21.17072">
    <name>TP386</name>
  </trkpt>
  <trkpt lat="45.6727" lon="21.1707">
    <name>TP387</name>
  </trkpt>
  <trkpt lat="45.67268" lon="21.17069">
    <name>TP388</name>
  </trkpt>
  <trkpt lat="45.67265" lon="21.17067">
    <name>TP389</name>
  </trkpt>
  <trkpt lat="45.67263" lon="21.17067">
    <name>TP390</name>
  </trkpt>
  <trkpt lat="45.6726" lon="21.17066">
    <name>TP391</name>
  </trkpt>
  <trkpt lat="45.67258" lon="21.17066">
    <name>TP392</name>
  </trkpt>
  <trkpt lat="45.67255" lon="21.17066">
    <name>TP393</name>
  </trkpt>
  <trkpt lat="45.67253" lon="21.17067">
    <name>TP394</name>
  </trkpt>
  <trkpt lat="45.6725" lon="21.17068">
    <name>TP395</name>
  </trkpt>
  <trkpt lat="45.67248" lon="21.1707">
    <name>TP396</name>
  </trkpt>
  <trkpt lat="45.67246" lon="21.17071">
    <name>TP397</name>
  </trkpt>
  <trkpt lat="45.67244" lon="21.17074">
    <name>TP398</name>
  </trkpt>
  <trkpt lat="45.67242" lon="21.17076">
    <name>TP399</name>
  </trkpt>
  <trkpt lat="45.6724" lon="21.17079">
    <name>TP400</name>
  </trkpt>
  <trkpt lat="45.67239" lon="21.17082">
    <name>TP401</name>
  </trkpt>
  <trkpt lat="45.67238" lon="21.17085">
    <name>TP402</name>
  </trkpt>
  <trkpt lat="45.67237" lon="21.17087">
    <name>TP403</name>
  </trkpt>
  <trkpt lat="45.67228" lon="21.17098">
    <name>TP404</name>
  </trkpt>
  <trkpt lat="45.67223" lon="21.17101">
    <name>TP405</name>
  </trkpt>
  <trkpt lat="45.6721" lon="21.17105">
    <name>TP406</name>
  </trkpt>
  <trkpt lat="45.67149" lon="21.17122">
    <name>TP407</name>
  </trkpt>
  <trkpt lat="45.67087" lon="21.17136">
    <name>TP408</name>
  </trkpt>
  <trkpt lat="45.67023" lon="21.17151">
    <name>TP409</name>
  </trkpt>
  <trkpt lat="45.66918" lon="21.17176">
    <name>TP410</name>
  </trkpt>
  <trkpt lat="45.66855" lon="21.1719">
    <name>TP411</name>
  </trkpt>
  <trkpt lat="45.6681" lon="21.17199">
    <name>TP412</name>
  </trkpt>
  <trkpt lat="45.66751" lon="21.1721">
    <name>TP413</name>
  </trkpt>
  <trkpt lat="45.66719" lon="21.17216">
    <name>TP414</name>
  </trkpt>
  <trkpt lat="45.6648" lon="21.1725">
    <name>TP415</name>
  </trkpt>
  <trkpt lat="45.66431" lon="21.17255">
    <name>TP416</name>
  </trkpt>
  <trkpt lat="45.6614" lon="21.17293">
    <name>TP417</name>
  </trkpt>
  <trkpt lat="45.65962" lon="21.17317">
    <name>TP418</name>
  </trkpt>
  <trkpt lat="45.65955" lon="21.17317">
    <name>TP419</name>
  </trkpt>
  <trkpt lat="45.65908" lon="21.17325">
    <name>TP420</name>
  </trkpt>
  <trkpt lat="45.65818" lon="21.17336">
    <name>TP421</name>
  </trkpt>
  <trkpt lat="45.65729" lon="21.17347">
    <name>TP422</name>
  </trkpt>
  <trkpt lat="45.656" lon="21.17364">
    <name>TP423</name>
  </trkpt>
  <trkpt lat="45.65569" lon="21.17367">
    <name>TP424</name>
  </trkpt>
  <trkpt lat="45.65534" lon="21.1737">
    <name>TP425</name>
  </trkpt>
  <trkpt lat="45.6552" lon="21.17371">
    <name>TP426</name>
  </trkpt>
  <trkpt lat="45.65446" lon="21.1738">
    <name>TP427</name>
  </trkpt>
  <trkpt lat="45.65417" lon="21.17388">
    <name>TP428</name>
  </trkpt>
  <trkpt lat="45.654" lon="21.17397">
    <name>TP429</name>
  </trkpt>
  <trkpt lat="45.65346" lon="21.17405">
    <name>TP430</name>
  </trkpt>
  <trkpt lat="45.65328" lon="21.17407">
    <name>TP431</name>
  </trkpt>
  <trkpt lat="45.6513" lon="21.17436">
    <name>TP432</name>
  </trkpt>
  <trkpt lat="45.65117" lon="21.17438">
    <name>TP433</name>
  </trkpt>
  <trkpt lat="45.64923" lon="21.17465">
    <name>TP434</name>
  </trkpt>
  <trkpt lat="45.6473" lon="21.17492">
    <name>TP435</name>
  </trkpt>
  <trkpt lat="45.64721" lon="21.17493">
    <name>TP436</name>
  </trkpt>
  <trkpt lat="45.64704" lon="21.17497">
    <name>TP437</name>
  </trkpt>
  <trkpt lat="45.64683" lon="21.17502">
    <name>TP438</name>
  </trkpt>
  <trkpt lat="45.64647" lon="21.17512">
    <name>TP439</name>
  </trkpt>
  <trkpt lat="45.64614" lon="21.17526">
    <name>TP440</name>
  </trkpt>
  <trkpt lat="45.64576" lon="21.17545">
    <name>TP441</name>
  </trkpt>
  <trkpt lat="45.64555" lon="21.17557">
    <name>TP442</name>
  </trkpt>
  <trkpt lat="45.64532" lon="21.17571">
    <name>TP443</name>
  </trkpt>
  <trkpt lat="45.64509" lon="21.17587">
    <name>TP444</name>
  </trkpt>
  <trkpt lat="45.64488" lon="21.17603">
    <name>TP445</name>
  </trkpt>
  <trkpt lat="45.64466" lon="21.17622">
    <name>TP446</name>
  </trkpt>
  <trkpt lat="45.64445" lon="21.17641">
    <name>TP447</name>
  </trkpt>
  <trkpt lat="45.64413" lon="21.17673">
    <name>TP448</name>
  </trkpt>
  <trkpt lat="45.64379" lon="21.17707">
    <name>TP449</name>
  </trkpt>
  <trkpt lat="45.64356" lon="21.17733">
    <name>TP450</name>
  </trkpt>
  <trkpt lat="45.64347" lon="21.17743">
    <name>TP451</name>
  </trkpt>
  <trkpt lat="45.64322" lon="21.17766">
    <name>TP452</name>
  </trkpt>
  <trkpt lat="45.64301" lon="21.17782">
    <name>TP453</name>
  </trkpt>
  <trkpt lat="45.64283" lon="21.17792">
    <name>TP454</name>
  </trkpt>
  <trkpt lat="45.64253" lon="21.17808">
    <name>TP455</name>
  </trkpt>
  <trkpt lat="45.64252" lon="21.17808">
    <name>TP456</name>
  </trkpt>
  <trkpt lat="45.64121" lon="21.17879">
    <name>TP457</name>
  </trkpt>
  <trkpt lat="45.64088" lon="21.17897">
    <name>TP458</name>
  </trkpt>
  <trkpt lat="45.63996" lon="21.17947">
    <name>TP459</name>
  </trkpt>
  <trkpt lat="45.63932" lon="21.17981">
    <name>TP460</name>
  </trkpt>
  <trkpt lat="45.63907" lon="21.17994">
    <name>TP461</name>
  </trkpt>
  <trkpt lat="45.63893" lon="21.18003">
    <name>TP462</name>
  </trkpt>
  <trkpt lat="45.63876" lon="21.18016">
    <name>TP463</name>
  </trkpt>
  <trkpt lat="45.63863" lon="21.18028">
    <name>TP464</name>
  </trkpt>
  <trkpt lat="45.63856" lon="21.18036">
    <name>TP465</name>
  </trkpt>
  <trkpt lat="45.63846" lon="21.18051">
    <name>TP466</name>
  </trkpt>
  <trkpt lat="45.63826" lon="21.18083">
    <name>TP467</name>
  </trkpt>
  <trkpt lat="45.6378" lon="21.18164">
    <name>TP468</name>
  </trkpt>
  <trkpt lat="45.63752" lon="21.18216">
    <name>TP469</name>
  </trkpt>
  <trkpt lat="45.63746" lon="21.18226">
    <name>TP470</name>
  </trkpt>
  <trkpt lat="45.63743" lon="21.18231">
    <name>TP471</name>
  </trkpt>
  <trkpt lat="45.6374" lon="21.18236">
    <name>TP472</name>
  </trkpt>
  <trkpt lat="45.63736" lon="21.18243">
    <name>TP473</name>
  </trkpt>
  <trkpt lat="45.63704" lon="21.183">
    <name>TP474</name>
  </trkpt>
  <trkpt lat="45.63691" lon="21.18322">
    <name>TP475</name>
  </trkpt>
  <trkpt lat="45.63691" lon="21.18323">
    <name>TP476</name>
  </trkpt>
  <trkpt lat="45.63661" lon="21.18374">
    <name>TP477</name>
  </trkpt>
  <trkpt lat="45.63638" lon="21.18413">
    <name>TP478</name>
  </trkpt>
  <trkpt lat="45.63622" lon="21.18439">
    <name>TP479</name>
  </trkpt>
  <trkpt lat="45.63621" lon="21.18441">
    <name>TP480</name>
  </trkpt>
  <trkpt lat="45.63616" lon="21.18449">
    <name>TP481</name>
  </trkpt>
  <trkpt lat="45.63611" lon="21.18456">
    <name>TP482</name>
  </trkpt>
  <trkpt lat="45.63588" lon="21.18486">
    <name>TP483</name>
  </trkpt>
  <trkpt lat="45.63569" lon="21.18507">
    <name>TP484</name>
  </trkpt>
  <trkpt lat="45.63566" lon="21.18511">
    <name>TP485</name>
  </trkpt>
  <trkpt lat="45.63562" lon="21.18515">
    <name>TP486</name>
  </trkpt>
  <trkpt lat="45.6351" lon="21.18573">
    <name>TP487</name>
  </trkpt>
  <trkpt lat="45.63507" lon="21.18576">
    <name>TP488</name>
  </trkpt>
  <trkpt lat="45.63443" lon="21.18648">
    <name>TP489</name>
  </trkpt>
  <trkpt lat="45.63412" lon="21.1868">
    <name>TP490</name>
  </trkpt>
  <trkpt lat="45.63392" lon="21.18698">
    <name>TP491</name>
  </trkpt>
  <trkpt lat="45.63373" lon="21.18715">
    <name>TP492</name>
  </trkpt>
  <trkpt lat="45.63355" lon="21.18727">
    <name>TP493</name>
  </trkpt>
  <trkpt lat="45.63337" lon="21.18738">
    <name>TP494</name>
  </trkpt>
  <trkpt lat="45.63305" lon="21.18754">
    <name>TP495</name>
  </trkpt>
  <trkpt lat="45.63261" lon="21.18775">
    <name>TP496</name>
  </trkpt>
  <trkpt lat="45.63237" lon="21.18787">
    <name>TP497</name>
  </trkpt>
  <trkpt lat="45.63168" lon="21.1882">
    <name>TP498</name>
  </trkpt>
  <trkpt lat="45.63132" lon="21.18835">
    <name>TP499</name>
  </trkpt>
  <trkpt lat="45.62967" lon="21.18912">
    <name>TP500</name>
  </trkpt>
  <trkpt lat="45.62961" lon="21.18914">
    <name>TP501</name>
  </trkpt>
  <trkpt lat="45.62958" lon="21.18916">
    <name>TP502</name>
  </trkpt>
  <trkpt lat="45.62929" lon="21.18929">
    <name>TP503</name>
  </trkpt>
  <trkpt lat="45.62859" lon="21.18961">
    <name>TP504</name>
  </trkpt>
  <trkpt lat="45.6278" lon="21.18998">
    <name>TP505</name>
  </trkpt>
  <trkpt lat="45.62719" lon="21.19033">
    <name>TP506</name>
  </trkpt>
  <trkpt lat="45.62675" lon="21.19059">
    <name>TP507</name>
  </trkpt>
  <trkpt lat="45.62604" lon="21.19106">
    <name>TP508</name>
  </trkpt>
  <trkpt lat="45.62556" lon="21.19131">
    <name>TP509</name>
  </trkpt>
  <trkpt lat="45.62501" lon="21.19154">
    <name>TP510</name>
  </trkpt>
  <trkpt lat="45.62429" lon="21.19184">
    <name>TP511</name>
  </trkpt>
  <trkpt lat="45.62375" lon="21.19201">
    <name>TP512</name>
  </trkpt>
  <trkpt lat="45.62334" lon="21.19211">
    <name>TP513</name>
  </trkpt>
  <trkpt lat="45.62274" lon="21.1922">
    <name>TP514</name>
  </trkpt>
  <trkpt lat="45.62268" lon="21.19221">
    <name>TP515</name>
  </trkpt>
  <trkpt lat="45.62264" lon="21.19221">
    <name>TP516</name>
  </trkpt>
  <trkpt lat="45.62218" lon="21.19226">
    <name>TP517</name>
  </trkpt>
  <trkpt lat="45.62123" lon="21.19235">
    <name>TP518</name>
  </trkpt>
  <trkpt lat="45.62095" lon="21.19238">
    <name>TP519</name>
  </trkpt>
  <trkpt lat="45.62076" lon="21.19241">
    <name>TP520</name>
  </trkpt>
  <trkpt lat="45.62055" lon="21.19246">
    <name>TP521</name>
  </trkpt>
  <trkpt lat="45.62034" lon="21.19254">
    <name>TP522</name>
  </trkpt>
  <trkpt lat="45.62019" lon="21.19263">
    <name>TP523</name>
  </trkpt>
  <trkpt lat="45.62001" lon="21.19277">
    <name>TP524</name>
  </trkpt>
  <trkpt lat="45.61949" lon="21.19327">
    <name>TP525</name>
  </trkpt>
  <trkpt lat="45.61902" lon="21.19373">
    <name>TP526</name>
  </trkpt>
  <trkpt lat="45.61819" lon="21.19455">
    <name>TP527</name>
  </trkpt>
  <trkpt lat="45.61795" lon="21.19478">
    <name>TP528</name>
  </trkpt>
  <trkpt lat="45.61766" lon="21.19507">
    <name>TP529</name>
  </trkpt>
  <trkpt lat="45.61759" lon="21.19512">
    <name>TP530</name>
  </trkpt>
  <trkpt lat="45.61744" lon="21.19525">
    <name>TP531</name>
  </trkpt>
  <trkpt lat="45.61741" lon="21.19527">
    <name>TP532</name>
  </trkpt>
  <trkpt lat="45.61724" lon="21.19536">
    <name>TP533</name>
  </trkpt>
  <trkpt lat="45.6171" lon="21.19541">
    <name>TP534</name>
  </trkpt>
  <trkpt lat="45.61679" lon="21.1955">
    <name>TP535</name>
  </trkpt>
  <trkpt lat="45.61649" lon="21.19552">
    <name>TP536</name>
  </trkpt>
  <trkpt lat="45.61624" lon="21.1955">
    <name>TP537</name>
  </trkpt>
  <trkpt lat="45.61539" lon="21.19541">
    <name>TP538</name>
  </trkpt>
  <trkpt lat="45.61379" lon="21.19521">
    <name>TP539</name>
  </trkpt>
  <trkpt lat="45.61322" lon="21.19514">
    <name>TP540</name>
  </trkpt>
  <trkpt lat="45.61284" lon="21.19513">
    <name>TP541</name>
  </trkpt>
  <trkpt lat="45.6126" lon="21.19514">
    <name>TP542</name>
  </trkpt>
  <trkpt lat="45.60944" lon="21.19578">
    <name>TP543</name>
  </trkpt>
  <trkpt lat="45.60923" lon="21.19583">
    <name>TP544</name>
  </trkpt>
  <trkpt lat="45.60918" lon="21.19584">
    <name>TP545</name>
  </trkpt>
  <trkpt lat="45.60788" lon="21.1961">
    <name>TP546</name>
  </trkpt>
  <trkpt lat="45.60672" lon="21.19635">
    <name>TP547</name>
  </trkpt>
  <trkpt lat="45.60666" lon="21.19637">
    <name>TP548</name>
  </trkpt>
  <trkpt lat="45.60662" lon="21.19638">
    <name>TP549</name>
  </trkpt>
  <trkpt lat="45.60657" lon="21.19639">
    <name>TP550</name>
  </trkpt>
  <trkpt lat="45.60441" lon="21.19686">
    <name>TP551</name>
  </trkpt>
  <trkpt lat="45.60194" lon="21.1974">
    <name>TP552</name>
  </trkpt>
  <trkpt lat="45.59967" lon="21.1979">
    <name>TP553</name>
  </trkpt>
  <trkpt lat="45.59885" lon="21.19806">
    <name>TP554</name>
  </trkpt>
  <trkpt lat="45.59856" lon="21.19813">
    <name>TP555</name>
  </trkpt>
  <trkpt lat="45.59667" lon="21.19855">
    <name>TP556</name>
  </trkpt>
  <trkpt lat="45.59617" lon="21.19866">
    <name>TP557</name>
  </trkpt>
  <trkpt lat="45.59612" lon="21.19867">
    <name>TP558</name>
  </trkpt>
  <trkpt lat="45.59589" lon="21.19872">
    <name>TP559</name>
  </trkpt>
  <trkpt lat="45.59531" lon="21.19884">
    <name>TP560</name>
  </trkpt>
  <trkpt lat="45.59474" lon="21.19895">
    <name>TP561</name>
  </trkpt>
  <trkpt lat="45.59465" lon="21.19897">
    <name>TP562</name>
  </trkpt>
  <trkpt lat="45.59423" lon="21.19904">
    <name>TP563</name>
  </trkpt>
  <trkpt lat="45.594" lon="21.1991">
    <name>TP564</name>
  </trkpt>
  <trkpt lat="45.59379" lon="21.19915">
    <name>TP565</name>
  </trkpt>
  <trkpt lat="45.59359" lon="21.19921">
    <name>TP566</name>
  </trkpt>
  <trkpt lat="45.59303" lon="21.19933">
    <name>TP567</name>
  </trkpt>
  <trkpt lat="45.59272" lon="21.19939">
    <name>TP568</name>
  </trkpt>
  <trkpt lat="45.59201" lon="21.19955">
    <name>TP569</name>
  </trkpt>
  <trkpt lat="45.59104" lon="21.19976">
    <name>TP570</name>
  </trkpt>
  <trkpt lat="45.5903" lon="21.19991">
    <name>TP571</name>
  </trkpt>
  <trkpt lat="45.58944" lon="21.2001">
    <name>TP572</name>
  </trkpt>
  <trkpt lat="45.58898" lon="21.2002">
    <name>TP573</name>
  </trkpt>
  <trkpt lat="45.58849" lon="21.20031">
    <name>TP574</name>
  </trkpt>
  <trkpt lat="45.58845" lon="21.20032">
    <name>TP575</name>
  </trkpt>
  <trkpt lat="45.58844" lon="21.20032">
    <name>TP576</name>
  </trkpt>
  <trkpt lat="45.58799" lon="21.20042">
    <name>TP577</name>
  </trkpt>
  <trkpt lat="45.58795" lon="21.20041">
    <name>TP578</name>
  </trkpt>
  <trkpt lat="45.5879" lon="21.20041">
    <name>TP579</name>
  </trkpt>
  <trkpt lat="45.58775" lon="21.20044">
    <name>TP580</name>
  </trkpt>
  <trkpt lat="45.58763" lon="21.20047">
    <name>TP581</name>
  </trkpt>
  <trkpt lat="45.58736" lon="21.20054">
    <name>TP582</name>
  </trkpt>
  <trkpt lat="45.58711" lon="21.2006">
    <name>TP583</name>
  </trkpt>
  <trkpt lat="45.58626" lon="21.20077">
    <name>TP584</name>
  </trkpt>
  <trkpt lat="45.58619" lon="21.20078">
    <name>TP585</name>
  </trkpt>
  <trkpt lat="45.58611" lon="21.2008">
    <name>TP586</name>
  </trkpt>
  <trkpt lat="45.58608" lon="21.20081">
    <name>TP587</name>
  </trkpt>
  <trkpt lat="45.58607" lon="21.20082">
    <name>TP588</name>
  </trkpt>
  <trkpt lat="45.58605" lon="21.20084">
    <name>TP589</name>
  </trkpt>
  <trkpt lat="45.58558" lon="21.20094">
    <name>TP590</name>
  </trkpt>
  <trkpt lat="45.58554" lon="21.20095">
    <name>TP591</name>
  </trkpt>
  <trkpt lat="45.58553" lon="21.20095">
    <name>TP592</name>
  </trkpt>
  <trkpt lat="45.58461" lon="21.20115">
    <name>TP593</name>
  </trkpt>
  <trkpt lat="45.5845" lon="21.20117">
    <name>TP594</name>
  </trkpt>
  <trkpt lat="45.58343" lon="21.2014">
    <name>TP595</name>
  </trkpt>
  <trkpt lat="45.58252" lon="21.20159">
    <name>TP596</name>
  </trkpt>
  <trkpt lat="45.58166" lon="21.20178">
    <name>TP597</name>
  </trkpt>
  <trkpt lat="45.58163" lon="21.20178">
    <name>TP598</name>
  </trkpt>
  <trkpt lat="45.58148" lon="21.20181">
    <name>TP599</name>
  </trkpt>
  <trkpt lat="45.58132" lon="21.20185">
    <name>TP600</name>
  </trkpt>
  <trkpt lat="45.58038" lon="21.20205">
    <name>TP601</name>
  </trkpt>
  <trkpt lat="45.57957" lon="21.20223">
    <name>TP602</name>
  </trkpt>
  <trkpt lat="45.57844" lon="21.20247">
    <name>TP603</name>
  </trkpt>
  <trkpt lat="45.5775" lon="21.20267">
    <name>TP604</name>
  </trkpt>
  <trkpt lat="45.57704" lon="21.20277">
    <name>TP605</name>
  </trkpt>
  <trkpt lat="45.57682" lon="21.20282">
    <name>TP606</name>
  </trkpt>
  <trkpt lat="45.57679" lon="21.20283">
    <name>TP607</name>
  </trkpt>
  <trkpt lat="45.57668" lon="21.20285">
    <name>TP608</name>
  </trkpt>
  <trkpt lat="45.57553" lon="21.2031">
    <name>TP609</name>
  </trkpt>
  <trkpt lat="45.57535" lon="21.20314">
    <name>TP610</name>
  </trkpt>
  <trkpt lat="45.57488" lon="21.20324">
    <name>TP611</name>
  </trkpt>
  <trkpt lat="45.57442" lon="21.20334">
    <name>TP612</name>
  </trkpt>
  <trkpt lat="45.57379" lon="21.20348">
    <name>TP613</name>
  </trkpt>
  <trkpt lat="45.57342" lon="21.20356">
    <name>TP614</name>
  </trkpt>
  <trkpt lat="45.57327" lon="21.2036">
    <name>TP615</name>
  </trkpt>
  <trkpt lat="45.57279" lon="21.20369">
    <name>TP616</name>
  </trkpt>
  <trkpt lat="45.57211" lon="21.20385">
    <name>TP617</name>
  </trkpt>
  <trkpt lat="45.57207" lon="21.20388">
    <name>TP618</name>
  </trkpt>
  <trkpt lat="45.57188" lon="21.20395">
    <name>TP619</name>
  </trkpt>
  <trkpt lat="45.57167" lon="21.20405">
    <name>TP620</name>
  </trkpt>
  <trkpt lat="45.5715" lon="21.20415">
    <name>TP621</name>
  </trkpt>
  <trkpt lat="45.57132" lon="21.20432">
    <name>TP622</name>
  </trkpt>
  <trkpt lat="45.57131" lon="21.20433">
    <name>TP623</name>
  </trkpt>
  <trkpt lat="45.57116" lon="21.2045">
    <name>TP624</name>
  </trkpt>
  <trkpt lat="45.57103" lon="21.20465">
    <name>TP625</name>
  </trkpt>
  <trkpt lat="45.57087" lon="21.20488">
    <name>TP626</name>
  </trkpt>
  <trkpt lat="45.57049" lon="21.20541">
    <name>TP627</name>
  </trkpt>
  <trkpt lat="45.56993" lon="21.20614">
    <name>TP628</name>
  </trkpt>
  <trkpt lat="45.5692" lon="21.20708">
    <name>TP629</name>
  </trkpt>
  <trkpt lat="45.56893" lon="21.2074">
    <name>TP630</name>
  </trkpt>
  <trkpt lat="45.56853" lon="21.20792">
    <name>TP631</name>
  </trkpt>
  <trkpt lat="45.56839" lon="21.20812">
    <name>TP632</name>
  </trkpt>
  <trkpt lat="45.56831" lon="21.20821">
    <name>TP633</name>
  </trkpt>
  <trkpt lat="45.56805" lon="21.20853">
    <name>TP634</name>
  </trkpt>
  <trkpt lat="45.56785" lon="21.20871">
    <name>TP635</name>
  </trkpt>
  <trkpt lat="45.56749" lon="21.20904">
    <name>TP636</name>
  </trkpt>
  <trkpt lat="45.56729" lon="21.20919">
    <name>TP637</name>
  </trkpt>
  <trkpt lat="45.56707" lon="21.2094">
    <name>TP638</name>
  </trkpt>
  <trkpt lat="45.56689" lon="21.20957">
    <name>TP639</name>
  </trkpt>
  <trkpt lat="45.56684" lon="21.20963">
    <name>TP640</name>
  </trkpt>
  <trkpt lat="45.56681" lon="21.20963">
    <name>TP641</name>
  </trkpt>
  <trkpt lat="45.5668" lon="21.20963">
    <name>TP642</name>
  </trkpt>
  <trkpt lat="45.56679" lon="21.20963">
    <name>TP643</name>
  </trkpt>
  <trkpt lat="45.56679" lon="21.20964">
    <name>TP644</name>
  </trkpt>
  <trkpt lat="45.5667" lon="21.20978">
    <name>TP645</name>
  </trkpt>
  <trkpt lat="45.56662" lon="21.20992">
    <name>TP646</name>
  </trkpt>
  <trkpt lat="45.56656" lon="21.21005">
    <name>TP647</name>
  </trkpt>
  <trkpt lat="45.56648" lon="21.21021">
    <name>TP648</name>
  </trkpt>
  <trkpt lat="45.5664" lon="21.21041">
    <name>TP649</name>
  </trkpt>
  <trkpt lat="45.5663972" lon="21.2104146">
    <name>TP650</name>
  </trkpt>
  <trkpt lat="45.56561" lon="21.20988">
    <name>TP651</name>
  </trkpt>
  <trkpt lat="45.56552" lon="21.20981">
    <name>TP652</name>
  </trkpt>
  <trkpt lat="45.56547" lon="21.20974">
    <name>TP653</name>
  </trkpt>
  <trkpt lat="45.56542" lon="21.20968">
    <name>TP654</name>
  </trkpt>
  <trkpt lat="45.56537" lon="21.2096">
    <name>TP655</name>
  </trkpt>
  <trkpt lat="45.56536" lon="21.20947">
    <name>TP656</name>
  </trkpt>
  <trkpt lat="45.56535" lon="21.20937">
    <name>TP657</name>
  </trkpt>
  <trkpt lat="45.56535" lon="21.20927">
    <name>TP658</name>
  </trkpt>
  <trkpt lat="45.5654" lon="21.2083">
    <name>TP659</name>
  </trkpt>
  <trkpt lat="45.5654" lon="21.20812">
    <name>TP660</name>
  </trkpt>
  <trkpt lat="45.56539" lon="21.20801">
    <name>TP661</name>
  </trkpt>
  <trkpt lat="45.56537" lon="21.20789">
    <name>TP662</name>
  </trkpt>
  <trkpt lat="45.56533" lon="21.20774">
    <name>TP663</name>
  </trkpt>
  <trkpt lat="45.56306" lon="21.20257">
    <name>TP664</name>
  </trkpt>
  <trkpt lat="45.56277" lon="21.2019">
    <name>TP665</name>
  </trkpt>
  <trkpt lat="45.56269" lon="21.20173">
    <name>TP666</name>
  </trkpt>
  <trkpt lat="45.56215" lon="21.20046">
    <name>TP667</name>
  </trkpt>
  <trkpt lat="45.56209" lon="21.20031">
    <name>TP668</name>
  </trkpt>
  <trkpt lat="45.562" lon="21.20012">
    <name>TP669</name>
  </trkpt>
  <trkpt lat="45.5619" lon="21.19993">
    <name>TP670</name>
  </trkpt>
  <trkpt lat="45.56176" lon="21.19974">
    <name>TP671</name>
  </trkpt>
  <trkpt lat="45.56148" lon="21.19939">
    <name>TP672</name>
  </trkpt>
  <trkpt lat="45.56146" lon="21.19938">
    <name>TP673</name>
  </trkpt>
  <trkpt lat="45.5599" lon="21.1975">
    <name>TP674</name>
  </trkpt>
  <trkpt lat="45.55965" lon="21.19719">
    <name>TP675</name>
  </trkpt>
  <trkpt lat="45.55941" lon="21.19689">
    <name>TP676</name>
  </trkpt>
  <trkpt lat="45.55934" lon="21.19681">
    <name>TP677</name>
  </trkpt>
  <trkpt lat="45.55919" lon="21.19664">
    <name>TP678</name>
  </trkpt>
  <trkpt lat="45.55825" lon="21.19554">
    <name>TP679</name>
  </trkpt>
  <trkpt lat="45.5579" lon="21.19512">
    <name>TP680</name>
  </trkpt>
  <trkpt lat="45.5574" lon="21.19453">
    <name>TP681</name>
  </trkpt>
  <trkpt lat="45.5559" lon="21.19274">
    <name>TP682</name>
  </trkpt>
  <trkpt lat="45.55369" lon="21.19011">
    <name>TP683</name>
  </trkpt>
  <trkpt lat="45.55305" lon="21.18935">
    <name>TP684</name>
  </trkpt>
  <trkpt lat="45.55265" lon="21.18892">
    <name>TP685</name>
  </trkpt>
  <trkpt lat="45.55181" lon="21.18799">
    <name>TP686</name>
  </trkpt>
  <trkpt lat="45.55121" lon="21.1873">
    <name>TP687</name>
  </trkpt>
  <trkpt lat="45.55037" lon="21.18639">
    <name>TP688</name>
  </trkpt>
  <trkpt lat="45.54997" lon="21.18594">
    <name>TP689</name>
  </trkpt>
  <trkpt lat="45.54805" lon="21.1838">
    <name>TP690</name>
  </trkpt>
  <trkpt lat="45.54554" lon="21.18103">
    <name>TP691</name>
  </trkpt>
  <trkpt lat="45.54551" lon="21.181">
    <name>TP692</name>
  </trkpt>
  <trkpt lat="45.5454" lon="21.18087">
    <name>TP693</name>
  </trkpt>
  <trkpt lat="45.54471" lon="21.18011">
    <name>TP694</name>
  </trkpt>
  <trkpt lat="45.54378" lon="21.17906">
    <name>TP695</name>
  </trkpt>
  <trkpt lat="45.54229" lon="21.17741">
    <name>TP696</name>
  </trkpt>
  <trkpt lat="45.54228" lon="21.1774">
    <name>TP697</name>
  </trkpt>
  <trkpt lat="45.54081" lon="21.17577">
    <name>TP698</name>
  </trkpt>
  <trkpt lat="45.53906" lon="21.17384">
    <name>TP699</name>
  </trkpt>
  <trkpt lat="45.53889" lon="21.17366">
    <name>TP700</name>
  </trkpt>
  <trkpt lat="45.53867" lon="21.1734">
    <name>TP701</name>
  </trkpt>
  <trkpt lat="45.53861" lon="21.17333">
    <name>TP702</name>
  </trkpt>
  <trkpt lat="45.53857" lon="21.17328">
    <name>TP703</name>
  </trkpt>
  <trkpt lat="45.53854" lon="21.17324">
    <name>TP704</name>
  </trkpt>
  <trkpt lat="45.53852" lon="21.1732">
    <name>TP705</name>
  </trkpt>
  <trkpt lat="45.53848" lon="21.17314">
    <name>TP706</name>
  </trkpt>
  <trkpt lat="45.53845" lon="21.17309">
    <name>TP707</name>
  </trkpt>
  <trkpt lat="45.53842" lon="21.17305">
    <name>TP708</name>
  </trkpt>
  <trkpt lat="45.53837" lon="21.17298">
    <name>TP709</name>
  </trkpt>
  <trkpt lat="45.53828" lon="21.17286">
    <name>TP710</name>
  </trkpt>
  <trkpt lat="45.53824" lon="21.17282">
    <name>TP711</name>
  </trkpt>
  <trkpt lat="45.53717" lon="21.17164">
    <name>TP712</name>
  </trkpt>
  <trkpt lat="45.53639" lon="21.17077">
    <name>TP713</name>
  </trkpt>
  <trkpt lat="45.53604" lon="21.17036">
    <name>TP714</name>
  </trkpt>
  <trkpt lat="45.53505" lon="21.16902">
    <name>TP715</name>
  </trkpt>
  <trkpt lat="45.53453" lon="21.16829">
    <name>TP716</name>
  </trkpt>
  <trkpt lat="45.53401" lon="21.1675">
    <name>TP717</name>
  </trkpt>
  <trkpt lat="45.53371" lon="21.16706">
    <name>TP718</name>
  </trkpt>
  <trkpt lat="45.53346" lon="21.16666">
    <name>TP719</name>
  </trkpt>
  <trkpt lat="45.53308" lon="21.16608">
    <name>TP720</name>
  </trkpt>
  <trkpt lat="45.53251" lon="21.16512">
    <name>TP721</name>
  </trkpt>
  <trkpt lat="45.53237" lon="21.1649">
    <name>TP722</name>
  </trkpt>
  <trkpt lat="45.53223" lon="21.1646">
    <name>TP723</name>
  </trkpt>
  <trkpt lat="45.53206" lon="21.16423">
    <name>TP724</name>
  </trkpt>
  <trkpt lat="45.53189" lon="21.16382">
    <name>TP725</name>
  </trkpt>
  <trkpt lat="45.53168" lon="21.16324">
    <name>TP726</name>
  </trkpt>
  <trkpt lat="45.53134" lon="21.16231">
    <name>TP727</name>
  </trkpt>
  <trkpt lat="45.53083" lon="21.16094">
    <name>TP728</name>
  </trkpt>
  <trkpt lat="45.53072" lon="21.16066">
    <name>TP729</name>
  </trkpt>
  <trkpt lat="45.52992" lon="21.15847">
    <name>TP730</name>
  </trkpt>
  <trkpt lat="45.52972" lon="21.15792">
    <name>TP731</name>
  </trkpt>
  <trkpt lat="45.52971" lon="21.15788">
    <name>TP732</name>
  </trkpt>
  <trkpt lat="45.52831" lon="21.15406">
    <name>TP733</name>
  </trkpt>
  <trkpt lat="45.52794" lon="21.15304">
    <name>TP734</name>
  </trkpt>
  <trkpt lat="45.52787" lon="21.15287">
    <name>TP735</name>
  </trkpt>
  <trkpt lat="45.52779" lon="21.15271">
    <name>TP736</name>
  </trkpt>
  <trkpt lat="45.5277" lon="21.15256">
    <name>TP737</name>
  </trkpt>
  <trkpt lat="45.52611" lon="21.14994">
    <name>TP738</name>
  </trkpt>
  <trkpt lat="45.52478" lon="21.14778">
    <name>TP739</name>
  </trkpt>
  <trkpt lat="45.52386" lon="21.14627">
    <name>TP740</name>
  </trkpt>
  <trkpt lat="45.52374" lon="21.14607">
    <name>TP741</name>
  </trkpt>
  <trkpt lat="45.52338" lon="21.14548">
    <name>TP742</name>
  </trkpt>
  <trkpt lat="45.52011" lon="21.14005">
    <name>TP743</name>
  </trkpt>
  <trkpt lat="45.5196" lon="21.1392">
    <name>TP744</name>
  </trkpt>
  <trkpt lat="45.51944" lon="21.1389">
    <name>TP745</name>
  </trkpt>
  <trkpt lat="45.51932" lon="21.13868">
    <name>TP746</name>
  </trkpt>
  <trkpt lat="45.51929" lon="21.13863">
    <name>TP747</name>
  </trkpt>
  <trkpt lat="45.51926" lon="21.13861">
    <name>TP748</name>
  </trkpt>
  <trkpt lat="45.51922" lon="21.13857">
    <name>TP749</name>
  </trkpt>
  <trkpt lat="45.51912" lon="21.1385">
    <name>TP750</name>
  </trkpt>
  <trkpt lat="45.51897" lon="21.13839">
    <name>TP751</name>
  </trkpt>
  <trkpt lat="45.51891" lon="21.13835">
    <name>TP752</name>
  </trkpt>
  <trkpt lat="45.51867" lon="21.13817">
    <name>TP753</name>
  </trkpt>
  <trkpt lat="45.51835" lon="21.13793">
    <name>TP754</name>
  </trkpt>
  <trkpt lat="45.51721" lon="21.13704">
    <name>TP755</name>
  </trkpt>
  <trkpt lat="45.5162" lon="21.13624">
    <name>TP756</name>
  </trkpt>
  <trkpt lat="45.51561" lon="21.1358">
    <name>TP757</name>
  </trkpt>
  <trkpt lat="45.51549" lon="21.1357">
    <name>TP758</name>
  </trkpt>
  <trkpt lat="45.51527" lon="21.13553">
    <name>TP759</name>
  </trkpt>
  <trkpt lat="45.5152" lon="21.13546">
    <name>TP760</name>
  </trkpt>
  <trkpt lat="45.51513" lon="21.13537">
    <name>TP761</name>
  </trkpt>
  <trkpt lat="45.51508" lon="21.13528">
    <name>TP762</name>
  </trkpt>
  <trkpt lat="45.51503" lon="21.13515">
    <name>TP763</name>
  </trkpt>
  <trkpt lat="45.51492" lon="21.13472">
    <name>TP764</name>
  </trkpt>
  <trkpt lat="45.51478" lon="21.13422">
    <name>TP765</name>
  </trkpt>
  <trkpt lat="45.51471" lon="21.134">
    <name>TP766</name>
  </trkpt>
  <trkpt lat="45.51439" lon="21.13283">
    <name>TP767</name>
  </trkpt>
  <trkpt lat="45.51437" lon="21.13274">
    <name>TP768</name>
  </trkpt>
  <trkpt lat="45.51436" lon="21.13273">
    <name>TP769</name>
  </trkpt>
  <trkpt lat="45.5143" lon="21.13246">
    <name>TP770</name>
  </trkpt>
  <trkpt lat="45.51429" lon="21.13242">
    <name>TP771</name>
  </trkpt>
  <trkpt lat="45.51422" lon="21.13198">
    <name>TP772</name>
  </trkpt>
  <trkpt lat="45.51418" lon="21.13156">
    <name>TP773</name>
  </trkpt>
  <trkpt lat="45.51414" lon="21.13098">
    <name>TP774</name>
  </trkpt>
  <trkpt lat="45.51409" lon="21.13011">
    <name>TP775</name>
  </trkpt>
  <trkpt lat="45.51405" lon="21.12919">
    <name>TP776</name>
  </trkpt>
  <trkpt lat="45.51403" lon="21.12871">
    <name>TP777</name>
  </trkpt>
  <trkpt lat="45.51401" lon="21.12846">
    <name>TP778</name>
  </trkpt>
  <trkpt lat="45.51398" lon="21.12822">
    <name>TP779</name>
  </trkpt>
  <trkpt lat="45.51392" lon="21.12776">
    <name>TP780</name>
  </trkpt>
  <trkpt lat="45.51371" lon="21.12654">
    <name>TP781</name>
  </trkpt>
  <trkpt lat="45.51337" lon="21.12455">
    <name>TP782</name>
  </trkpt>
  <trkpt lat="45.51335" lon="21.12442">
    <name>TP783</name>
  </trkpt>
  <trkpt lat="45.51405" lon="21.12376">
    <name>TP784</name>
  </trkpt>
  <trkpt lat="45.5140462" lon="21.1237583">
    <name>TP785</name>
  </trkpt>
  <trkpt lat="45.5140462" lon="21.1237583">
    <name>TP786</name>
  </trkpt>
  <trkpt lat="45.5140462" lon="21.1237583">
    <name>TP787</name>
  </trkpt>
  </trkseg>
</trk>
</gpx>